OBJECT_NAME,OBJECT_ID,EPOCH,MEAN_MOTION,ECCENTRICITY,INCLINATION,RA_OF_ASC_NODE,ARG_OF_PERICENTER,MEAN_ANOMALY,EPHEMERIS_TYPE,CLASSIFICATION_TYPE,NORAD_CAT_ID,ELEMENT_SET_NO,REV_AT_EPOCH,BSTAR,MEAN_MOTION_DOT,MEAN_MOTION_DDOT
CUBEBUG-2 (LO-74),2013-066AA,2026-07-10T07:20:24.677952,14.93948233,.00561215,97.8906,140.3858,311.9936,47.6511,0,U,39440,999,68044,.18439435E-3,.1961E-4,0
FUNCUBE-1 (AO-73),2013-066AE,2026-07-09T20:35:35.418048,15.09776510,.00378182,97.8287,162.7825,124.9796,235.4993,0,U,39444,999,68308,.31713173E-3,.5139E-4,0
UWE-3,2013-066AG,2026-07-09T08:07:38.406144,14.97176779,.00475397,97.8693,146.5655,244.9963,114.6317,0,U,39446,999,68089,.17898561E-3,.2052E-4,0
UNISAT-6,2014-033C,2026-07-09T15:44:35.801088,14.88353039,.00446315,97.7900,342.9767,356.2388,3.8487,0,U,40012,999,64950,.15181008E-3,.1374E-4,0
DUCHIFAT-1,2014-033M,2026-07-10T03:16:50.086848,15.70000067,.00018466,98.0434,253.6137,252.3958,107.7101,0,U,40021,999,65934,.96017557E-3,.116517E-2,0
QB50P1,2014-033R,2026-07-10T06:43:55.731360,15.18618170,.00100557,98.0969,204.0508,139.1601,221.0386,0,U,40025,999,65653,.26646951E-3,.5444E-4,0
LILACSAT-2,2015-049K,2026-07-10T07:01:09.001920,15.52237855,.00080538,97.4632,229.0201,156.0563,204.1066,0,U,40908,999,59933,.23036511E-3,.13899E-3,0
FOX-1A (AO-85),2015-058D,2026-07-10T00:33:12.345120,14.91069210,.01319674,64.7732,208.0108,47.7633,313.4585,0,U,40967,999,11697,.16237174E-3,.1723E-4,0
CAS-2T & KS-1Q,2016-066G,2026-07-10T03:57:26.754336,14.44763463,.0342489,98.3813,266.6381,59.9893,303.4819,0,U,41847,999,50811,.11781984E-3,.785E-5,0
RADFXSAT (FOX-1B),2017-073E,2026-07-09T10:21:18.525024,15.13014553,.01480371,97.4687,57.1929,251.5831,106.9257,0,U,43017,999,46875,.22300303E-3,.5081E-4,0
DIWATA-2B,2018-084H,2026-07-10T07:26:03.325344,15.00550623,.00130477,98.1222,28.5296,99.3897,260.8801,0,U,43678,999,41968,.10820918E-3,.1301E-4,0
ES'HAIL 2,2018-090A,2026-07-10T06:35:26.589984,1.00268559,.00021141,0.0231,28.2308,131.0934,253.5435,0,U,43700,999,2790,0,0,0
FOX-1CLIFF (AO-95),2018-099N,2026-07-10T03:28:44.388480,15.27204994,.00069822,97.4377,251.3120,261.2710,98.7738,0,U,43770,999,41672,.29948589E-3,.7917E-4,0
ITASAT,2018-099AE,2026-07-10T03:22:39.328608,15.19343715,.00107302,97.4020,242.1964,270.9097,89.0908,0,U,43786,999,41639,.21844873E-3,.4555E-4,0
JY1SAT (JO-97),2018-099AX,2026-07-10T02:55:50.056032,15.34409607,.00064067,97.4121,254.0449,173.8802,186.2520,0,U,43803,999,41714,.40848447E-3,.13549E-3,0
UWE-4,2018-111E,2026-07-09T06:35:43.813824,15.47549208,.00052707,97.5841,119.7053,218.3666,141.7210,0,U,43880,999,41419,.53767723E-3,.2764E-3,0
TIANYAN 01,2019-093C,2026-07-10T06:24:54.838368,14.86553862,.00139918,97.7520,262.9358,17.1736,342.9951,0,U,44881,999,35484,.769989E-6,-.47E-6,0
RS-44 & BREEZE-KM R/B,2019-096E,2026-07-10T07:16:24.451392,12.79748953,.02185813,82.5238,324.3444,90.3753,272.2396,0,U,44909,999,30530,-.16997626E-4,.9E-7,0
SALSAT,2020-068K,2026-07-09T06:02:33.013536,15.30117525,.00085936,97.8858,194.6644,215.0810,144.9864,0,U,46495,999,31873,.19084228E-3,.5482E-4,0
XW-3 (CAS-9),2021-131B,2026-07-10T07:26:12.240960,14.41378888,.00048409,98.4980,283.5752,43.2221,316.9347,0,U,50466,999,23844,.59410844E-4,.148E-5,0
GREENCUBE (IO-117),2022-080E,2026-07-10T05:14:37.423680,6.42583278,.00090084,70.1422,290.2367,284.7282,75.2379,0,U,53109,999,9354,0,-.3E-7,0
UMKA 1 (RS40S),2023-091G,2026-07-10T07:37:46.585056,15.21087171,.00135101,97.5042,249.9280,45.5314,314.7024,0,U,57172,999,16752,.19543092E-3,.4283E-4,0
CUBESX-HSE 3 (RS42S),2023-091N,2026-07-10T07:16:38.805888,15.31806869,.00101787,97.5084,257.1897,19.3789,340.7838,0,U,57178,999,16796,.30834001E-3,.9406E-4,0
MONITOR-3 (RS58S),2023-091Q,2026-07-10T05:58:01.422912,15.28311957,.00115369,97.5076,254.8690,26.8222,333.3611,0,U,57180,999,16781,.28983127E-3,.7932E-4,0
MONITOR-4 (RS57S),2023-091S,2026-07-10T07:00:17.743392,15.28398452,.00115439,97.5070,254.8851,26.9776,333.2061,0,U,57182,999,16782,.26626799E-3,.7299E-4,0
MONITOR-2 (RS39S),2023-091U,2026-07-10T07:15:53.068320,15.19127277,.00118608,97.5063,249.4372,40.0441,320.1666,0,U,57184,999,16746,.17403626E-3,.3592E-4,0
SVYATOBOR 1 (RS60S),2023-091X,2026-07-10T06:14:08.582784,15.27011390,.00092628,97.5082,255.2084,21.8967,338.2666,0,U,57187,999,16783,.24858525E-3,.6522E-4,0
VIZARD-METEO (RS38S),2023-091Z,2026-07-10T03:19:18.785568,15.36770155,.00061351,97.5084,261.0934,0.2955,359.8292,0,U,57189,999,16821,.36221096E-3,.12944E-3,0
POLYTECH-UNIVERSE 3 (RS46S),2023-091AB,2026-07-10T06:15:41.984640,15.19337761,.00164905,97.5039,248.8999,53.7786,306.4970,0,U,57191,999,16745,.16420781E-3,.3411E-4,0
UTMN 2 (RS27S),2023-091AP,2026-07-10T07:23:59.794080,15.32626826,.00072425,97.5080,258.8568,8.2582,351.8778,0,U,57203,999,16808,.30184807E-3,.9439E-4,0
