CUBEBUG-2 (LO-74)       
1 39440U 13066AA  26191.30584118  .00001961  00000+0  18439-3 0  9999
2 39440  97.8906 140.3858 0056121 311.9936  47.6511 14.93948233680449
FUNCUBE-1 (AO-73)       
1 39444U 13066AE  26190.85804882  .00005139  00000+0  31713-3 0  9996
2 39444  97.8287 162.7825 0037818 124.9796 235.4993 15.09776510683084
UWE-3                   
1 39446U 13066AG  26190.33863896  .00002052  00000+0  17899-3 0  9991
2 39446  97.8693 146.5655 0047539 244.9963 114.6317 14.97176779680899
UNISAT-6                
1 40012U 14033C   26190.65596992  .00001374  00000+0  15181-3 0  9990
2 40012  97.7900 342.9767 0044631 356.2388   3.8487 14.88353039649500
DUCHIFAT-1              
1 40021U 14033M   26191.13669082  .00116517  00000+0  96018-3 0  9999
2 40021  98.0434 253.6137 0001846 252.3958 107.7101 15.70000067659347
QB50P1                  
1 40025U 14033R   26191.28050615  .00005444  00000+0  26647-3 0  9992
2 40025  98.0969 204.0508 0010055 139.1601 221.0386 15.18618170656530
LILACSAT-2              
1 40908U 15049K   26191.29246530  .00013899  00000+0  23037-3 0  9997
2 40908  97.4632 229.0201 0008053 156.0563 204.1066 15.52237855599333
FOX-1A (AO-85)          
1 40967U 15058D   26191.02305955  .00001723  00000+0  16237-3 0  9997
2 40967  64.7732 208.0108 0131967  47.7633 313.4585 14.91069210116979
CAS-2T & KS-1Q          
1 41847U 16066G   26191.16489299  .00000785  00000+0  11782-3 0  9991
2 41847  98.3813 266.6381 0342489  59.9893 303.4819 14.44763463508118
RADFXSAT (FOX-1B)       
1 43017U 17073E   26190.43146441  .00005081  00000+0  22300-3 0  9991
2 43017  97.4687  57.1929 0148037 251.5831 106.9257 15.13014553468757
DIWATA-2B               
1 43678U 18084H   26191.30976071  .00001301  00000+0  10821-3 0  9990
2 43678  98.1222  28.5296 0013047  99.3897 260.8801 15.00550623419686
ES'HAIL 2               
1 43700U 18090A   26191.27461331  .00000000  00000+0  00000+0 0  9996
2 43700   0.0231  28.2308 0002114 131.0934 253.5435  1.00268559 27905
FOX-1CLIFF (AO-95)      
1 43770U 18099N   26191.14495820  .00007917  00000+0  29949-3 0  9999
2 43770  97.4377 251.3120 0006982 261.2710  98.7738 15.27204994416723
ITASAT                  
1 43786U 18099AE  26191.14073297  .00004555  00000+0  21845-3 0  9998
2 43786  97.4020 242.1964 0010730 270.9097  89.0908 15.19343715416391
JY1SAT (JO-97)          
1 43803U 18099AX  26191.12210713  .00013549  00000+0  40848-3 0  9999
2 43803  97.4121 254.0449 0006406 173.8802 186.2520 15.34409607417147
UWE-4                   
1 43880U 18111E   26190.27481266  .00027640  00000+0  53768-3 0  9999
2 43880  97.5841 119.7053 0005270 218.3666 141.7210 15.47549208414191
TIANYAN 01              
1 44881U 19093C   26191.26730137 -.00000047  00000+0  76999-6 0  9992
2 44881  97.7520 262.9358 0013991  17.1736 342.9951 14.86553862354845
RS-44 & BREEZE-KM R/B   
1 44909U 19096E   26191.30306078  .00000009  00000+0 -16998-4 0  9993
2 44909  82.5238 324.3444 0218581  90.3753 272.2396 12.79748953305309
SALSAT                  
1 46495U 20068K   26190.25177099  .00005482  00000+0  19084-3 0  9995
2 46495  97.8858 194.6644 0008593 215.0810 144.9864 15.30117525318739
XW-3 (CAS-9)            
1 50466U 21131B   26191.30986390  .00000148  00000+0  59411-4 0  9992
2 50466  98.4980 283.5752 0004840  43.2221 316.9347 14.41378888238449
GREENCUBE (IO-117)      
1 53109U 22080E   26191.21848870 -.00000003  00000+0  00000+0 0  9999
2 53109  70.1422 290.2367 0009008 284.7282  75.2379  6.42583278 93544
UMKA 1 (RS40S)          
1 57172U 23091G   26191.31790029  .00004283  00000+0  19543-3 0  9998
2 57172  97.5042 249.9280 0013510  45.5314 314.7024 15.21087171167522
CUBESX-HSE 3 (RS42S)    
1 57178U 23091N   26191.30322692  .00009406  00000+0  30834-3 0  9998
2 57178  97.5084 257.1897 0010178  19.3789 340.7838 15.31806869167965
MONITOR-3 (RS58S)       
1 57180U 23091Q   26191.24862758  .00007932  00000+0  28983-3 0  9990
2 57180  97.5076 254.8690 0011536  26.8222 333.3611 15.28311957167814
MONITOR-4 (RS57S)       
1 57182U 23091S   26191.29187203  .00007299  00000+0  26627-3 0  9991
2 57182  97.5070 254.8851 0011543  26.9776 333.2061 15.28398452167826
MONITOR-2 (RS39S)       
1 57184U 23091U   26191.30269755  .00003592  00000+0  17404-3 0  9993
2 57184  97.5063 249.4372 0011860  40.0441 320.1666 15.19127277167467
SVYATOBOR 1 (RS60S)     
1 57187U 23091X   26191.25982156  .00006522  00000+0  24859-3 0  9995
2 57187  97.5082 255.2084 0009262  21.8967 338.2666 15.27011390167837
VIZARD-METEO (RS38S)    
1 57189U 23091Z   26191.13841187  .00012944  00000+0  36221-3 0  9993
2 57189  97.5084 261.0934 0006135   0.2955 359.8292 15.36770155168212
POLYTECH-UNIVERSE 3 (R*)
1 57191U 23091AB  26191.26090260  .00003411  00000+0  16421-3 0  9997
2 57191  97.5039 248.8999 0016490  53.7786 306.4970 15.19337761167458
UTMN 2 (RS27S)          
1 57203U 23091AP  26191.30833095  .00009439  00000+0  30185-3 0  9996
2 57203  97.5080 258.8568 0007242   8.2582 351.8778 15.32626826168083
